KUIPER-00112            
1 65150U 25171U   26025.00004630 -.00021167  00000+0 -27578-2 0  9990
2 65150  51.9028 348.7925 0001029 102.4215 140.7000 14.79909733  5682
KUIPER-00114            
1 65151U 25171V   26024.69647449  .00002529  00000+0  36109-3 0  9996
2 65151  51.9020  10.1414 0002504  19.6617 340.4441 14.79879950 26129
KUIPER-00115            
1 65152U 25171W   26024.63725310  .00008725  00000+0  11713-2 0  9992
2 65152  51.9019   2.8902 0001788  62.5574 297.5570 14.79962002 26227
KUIPER-00116            
1 65153U 25171X   26024.93568623  .00009110  00000+0  12232-2 0  9994
2 65153  51.9011   6.6096 0005640 320.0856  39.9691 14.79898773 26193
KUIPER-00118            
1 65154U 25171Y   26024.25764958  .00008551  00000+0  11495-2 0  9997
2 65154  51.9014  12.0647 0001216  43.1595 316.9462 14.79925235 26062
KUIPER-00119            
1 65155U 25171Z   26024.94569520  .00006744  00000+0  90982-3 0  9993
2 65155  51.9018 356.5977 0007706 346.2351  13.8400 14.80060336 26335
KUIPER-00120            
1 65762U 25217A   26024.58930497  .00004371  00000+0  65265-3 0  9993
2 65762  51.8963 247.5348 0003631 133.9391 226.1870 14.76458135 18217
KUIPER-00132            
1 65763U 25217B   26024.52784842  .00071942  00000+0  18597-2 0  9992
2 65763  51.8574 217.6489 0008346 160.2380 199.8932 15.38419173 18627
